ONEWEB-0564             
1 55801U 23029F   25245.48609857  .00000081  00000+0  16755-3 0  9995
2 55801  87.9284 331.8232 0002291  99.7160 260.4232 13.20774239123178
ONEWEB-0638             
1 55802U 23029G   25245.51560791  .00000167  00000+0  41544-3 0  9992
2 55802  87.9099 347.0359 0002172  88.8416 271.2963 13.14502295121604
ONEWEB-0639             
1 55803U 23029H   25245.61044444  .00000048  00000+0  87004-4 0  9996
2 55803  87.9278   2.1630 0000870  65.9504 294.1720 13.19726858120974
ONEWEB-0640             
1 55804U 23029J   25245.52512544  .00000050  00000+0  99996-4 0  9994
2 55804  87.9093 347.0198 0001983  78.1730 281.9622 13.14503296121625
ONEWEB-0641             
1 55805U 23029K   25245.60570310 -.00000088  00000+0 -25204-3 0  9992
2 55805  87.9286   2.1365 0001518  95.4896 264.6410 13.19727599120984
ONEWEB-0642             
1 55806U 23029L   25245.29769566  .00000110  00000+0  24200-3 0  9990
2 55806  87.9276   2.2325 0000885  90.3328 269.7906 13.19724187120932
ONEWEB-0643             
1 55807U 23029M   25245.57110719  .00000219  00000+0  55534-3 0  9996
2 55807  87.9094 346.9941 0001123 111.9554 248.1695 13.14504413121604
ONEWEB-0644             
1 55808U 23029N   25245.29296049  .00000010  00000+0 -77511-5 0  9998
2 55808  87.9278   2.2408 0001299  95.9576 264.1705 13.19723614120934
